ISS OBJECT XW           
1 66910U 98067XW  26051.28534635  .00086813  00000+0  89568-3 0  9996
2 66910  51.6261 153.9304 0003513   0.9555 359.1446 15.64049562 12452
ISS OBJECT XX           
1 66911U 98067XX  26050.51504240  .00153219  00000+0  13523-2 0  9993
2 66911  51.6244 157.0316 0005193 349.8357  10.2534 15.67669066 12333
ISS OBJECT XY           
1 66912U 98067XY  26051.30757532  .00060985  00000+0  72543-3 0  9991
2 66912  51.6292 154.8409 0001592   7.5463 352.5554 15.60538174 12433
ISS OBJECT XZ           
1 67683U 98067XZ  26050.55831542  .00034476  00000+0  60149-3 0  9992
2 67683  51.6324 161.8342 0010271 126.3506 233.8432 15.50320477  1978
GXIBA-1                 
1 67684U 98067YA  26050.55169550  .00063458  00000+0  10517-2 0  9991
2 67684  51.6315 161.7905 0011790 118.7570 241.4605 15.51472052  1971
CORAL                   
1 67685U 98067YB  26050.49261918  .00039975  00000+0  69034-3 0  9992
2 67685  51.6320 162.1452 0012171 122.1026 238.1146 15.50514255  1962
ISS OBJECT YC           
1 67686U 98067YC  26050.68473037  .00046265  00000+0  79148-3 0  9998
2 67686  51.6322 161.1785 0007741  94.6086 265.5788 15.50761739  1999
LEOPARD                 
1 67687U 98067YD  26051.26658332  .00031688  00000+0  55088-3 0  9997
2 67687  51.6320 158.3144 0007827  98.8708 261.3168 15.50487975  2003
ISS OBJECT YE           
1 67688U 98067YE  26050.55633532  .00043193  00000+0  74278-3 0  9990
2 67688  51.6330 161.8218 0007725  94.7848 265.4023 15.50645417  1891
CREW DRAGON 12          
1 67796U 26031A   26051.21610692  .00009352  00000+0  18284-3 0  9992
2 67796  51.6324 158.7245 0008575 115.0388 245.1491 15.48153499553593
